STARLINK-2127
1 17403C 21005BG  21326.13488821  .00004948  00000-0  33136-3 0  3263
2 17403  53.0546 233.1447 0002165  67.5122  24.2017 15.06406912    15
